[{"CCSDS_OMM_VERS":"2.0","COMMENT":"GENERATED VIA SPACE-TRACK.ORG API","CREATION_DATE":"2021-10-03T04:23:41","ORIGINATOR":"18 SPCS","OBJECT_NAME":"TBA - TO BE ASSIGNED","OBJECT_ID":"","CENTER_NAME":"EARTH","REF_FRAME":"TEME","TIME_SYSTEM":"UTC","MEAN_ELEMENT_THEORY":"SGP4","EPOCH":"2021-10-02T09:37:13.196352","MEAN_MOTION":"12.52492713","ECCENTRICITY":"0.00566051","INCLINATION":"82.4657","RA_OF_ASC_NODE":"152.8058","ARG_OF_PERICENTER":"10.7041","MEAN_ANOMALY":"349.5234","EPHEMERIS_TYPE":"0","CLASSIFICATION_TYPE":"U","NORAD_CAT_ID":"270240","ELEMENT_SET_NO":"999","REV_AT_EPOCH":"7589","BSTAR":"0.05527664000000","MEAN_MOTION_DOT":"0.00008747","MEAN_MOTION_DDOT":"0.0000000000000","SEMIMAJOR_AXIS":"7832.223","PERIOD":"114.971","APOAPSIS":"1498.422","PERIAPSIS":"1409.753","OBJECT_TYPE":"TBA","RCS_SIZE":null,"COUNTRY_CODE":null,"LAUNCH_DATE":null,"SITE":null,"DECAY_DATE":null,"FILE":"3141323","GP_ID":"186041806","TLE_LINE0":"0 TBA - TO BE ASSIGNED","TLE_LINE1":"1 T0240U          21275.40084718  .00008747  00000-0  55277-1 0  9998","TLE_LINE2":"2 T0240  82.4657 152.8058 0056605  10.7041 349.5234 12.52492713 75899"},{"CCSDS_OMM_VERS":"2.0","COMMENT":"GENERATED VIA SPACE-TRACK.ORG API","CREATION_DATE":"2021-10-02T19:42:11","ORIGINATOR":"18 SPCS","OBJECT_NAME":"TBA - TO BE ASSIGNED","OBJECT_ID":"","CENTER_NAME":"EARTH","REF_FRAME":"TEME","TIME_SYSTEM":"UTC","MEAN_ELEMENT_THEORY":"SGP4","EPOCH":"2021-10-01T23:10:28.381728","MEAN_MOTION":"12.20975213","ECCENTRICITY":"0.02363408","INCLINATION":"82.4299","RA_OF_ASC_NODE":"176.1570","ARG_OF_PERICENTER":"325.9763","MEAN_ANOMALY":"32.6338","EPHEMERIS_TYPE":"0","CLASSIFICATION_TYPE":"U","NORAD_CAT_ID":"270239","ELEMENT_SET_NO":"999","REV_AT_EPOCH":"7456","BSTAR":"-0.01111096800000","MEAN_MOTION_DOT":"-0.00001263","MEAN_MOTION_DDOT":"0.0000000000000","SEMIMAJOR_AXIS":"7966.434","PERIOD":"117.939","APOAPSIS":"1776.578","PERIAPSIS":"1400.019","OBJECT_TYPE":"TBA","RCS_SIZE":null,"COUNTRY_CODE":null,"LAUNCH_DATE":null,"SITE":null,"DECAY_DATE":null,"FILE":"3140732","GP_ID":"186004000","TLE_LINE0":"0 TBA - TO BE ASSIGNED","TLE_LINE1":"1 T0239U          21274.96560627 -.00001263  00000-0 -11111-1 0  9991","TLE_LINE2":"2 T0239  82.4299 176.1570 0236341 325.9763  32.6338 12.20975213 74560"},{"CCSDS_OMM_VERS":"2.0","COMMENT":"GENERATED VIA SPACE-TRACK.ORG API","CREATION_DATE":"2021-10-03T04:23:41","ORIGINATOR":"18 SPCS","OBJECT_NAME":"TBA - TO BE ASSIGNED","OBJECT_ID":"","CENTER_NAME":"EARTH","REF_FRAME":"TEME","TIME_SYSTEM":"UTC","MEAN_ELEMENT_THEORY":"SGP4","EPOCH":"2021-10-02T16:19:33.313152","MEAN_MOTION":"12.79909329","ECCENTRICITY":"0.01572744","INCLINATION":"63.5238","RA_OF_ASC_NODE":"51.9447","ARG_OF_PERICENTER":"144.8027","MEAN_ANOMALY":"216.3477","EPHEMERIS_TYPE":"0","CLASSIFICATION_TYPE":"U","NORAD_CAT_ID":"270238","ELEMENT_SET_NO":"999","REV_AT_EPOCH":"7833","BSTAR":"0.00025169512000","MEAN_MOTION_DOT":"-0.00000014","MEAN_MOTION_DDOT":"0.0000000000000","SEMIMAJOR_AXIS":"7719.972","PERIOD":"112.508","APOAPSIS":"1463.252","PERIAPSIS":"1220.421","OBJECT_TYPE":"TBA","RCS_SIZE":null,"COUNTRY_CODE":null,"LAUNCH_DATE":null,"SITE":null,"DECAY_DATE":null,"FILE":"3141323","GP_ID":"186041459","TLE_LINE0":"0 TBA - TO BE ASSIGNED","TLE_LINE1":"1 T0238U          21275.68024668 -.00000014  00000-0  25170-3 0  9994","TLE_LINE2":"2 T0238  63.5238  51.9447 0157274 144.8027 216.3477 12.79909329 78336"},{"CCSDS_OMM_VERS":"2.0","COMMENT":"GENERATED VIA SPACE-TRACK.ORG API","CREATION_DATE":"2021-10-03T04:23:41","ORIGINATOR":"18 SPCS","OBJECT_NAME":"TBA - TO BE ASSIGNED","OBJECT_ID":"","CENTER_NAME":"EARTH","REF_FRAME":"TEME","TIME_SYSTEM":"UTC","MEAN_ELEMENT_THEORY":"SGP4","EPOCH":"2021-10-02T09:33:02.902464","MEAN_MOTION":"12.94181602","ECCENTRICITY":"0.00326593","INCLINATION":"90.2798","RA_OF_ASC_NODE":"327.1902","ARG_OF_PERICENTER":"86.1413","MEAN_ANOMALY":"274.3439","EPHEMERIS_TYPE":"0","CLASSIFICATION_TYPE":"U","NORAD_CAT_ID":"270237","ELEMENT_SET_NO":"999","REV_AT_EPOCH":"7880","BSTAR":"0.00386783590000","MEAN_MOTION_DOT":"0.00001081","MEAN_MOTION_DDOT":"0.0000000000000","SEMIMAJOR_AXIS":"7663.109","PERIOD":"111.267","APOAPSIS":"1310.002","PERIAPSIS":"1259.947","OBJECT_TYPE":"TBA","RCS_SIZE":null,"COUNTRY_CODE":null,"LAUNCH_DATE":null,"SITE":null,"DECAY_DATE":null,"FILE":"3141323","GP_ID":"186041748","TLE_LINE0":"0 TBA - TO BE ASSIGNED","TLE_LINE1":"1 T0237U          21275.39795026  .00001081  00000-0  38678-2 0  9994","TLE_LINE2":"2 T0237  90.2798 327.1902 0032659  86.1413 274.3439 12.94181602 78800"},{"CCSDS_OMM_VERS":"2.0","COMMENT":"GENERATED VIA SPACE-TRACK.ORG API","CREATION_DATE":"2021-10-01T18:05:37","ORIGINATOR":"18 SPCS","OBJECT_NAME":"TBA - TO BE ASSIGNED","OBJECT_ID":"","CENTER_NAME":"EARTH","REF_FRAME":"TEME","TIME_SYSTEM":"UTC","MEAN_ELEMENT_THEORY":"SGP4","EPOCH":"2021-10-01T09:10:27.562944","MEAN_MOTION":"12.94758800","ECCENTRICITY":"0.00288340","INCLINATION":"90.2780","RA_OF_ASC_NODE":"324.2755","ARG_OF_PERICENTER":"3.2984","MEAN_ANOMALY":"356.8320","EPHEMERIS_TYPE":"0","CLASSIFICATION_TYPE":"U","NORAD_CAT_ID":"270236","ELEMENT_SET_NO":"999","REV_AT_EPOCH":"7975","BSTAR":"0.00091918614000","MEAN_MOTION_DOT":"0.00000264","MEAN_MOTION_DDOT":"0.0000000000000","SEMIMAJOR_AXIS":"7660.832","PERIOD":"111.218","APOAPSIS":"1304.786","PERIAPSIS":"1260.608","OBJECT_TYPE":"TBA","RCS_SIZE":null,"COUNTRY_CODE":null,"LAUNCH_DATE":null,"SITE":null,"DECAY_DATE":null,"FILE":"3138865","GP_ID":"185915852","TLE_LINE0":"0 TBA - TO BE ASSIGNED","TLE_LINE1":"1 T0236U          21274.38226346  .00000264  00000-0  91919-3 0  9995","TLE_LINE2":"2 T0236  90.2780 324.2755 0028834   3.2984 356.8320 12.94758800 79757"},{"CCSDS_OMM_VERS":"2.0","COMMENT":"GENERATED VIA SPACE-TRACK.ORG API","CREATION_DATE":"2021-10-03T04:23:41","ORIGINATOR":"18 SPCS","OBJECT_NAME":"TBA - TO BE ASSIGNED","OBJECT_ID":"","CENTER_NAME":"EARTH","REF_FRAME":"TEME","TIME_SYSTEM":"UTC","MEAN_ELEMENT_THEORY":"SGP4","EPOCH":"2021-10-02T08:26:58.876512","MEAN_MOTION":"13.55791977","ECCENTRICITY":"0.01527073","INCLINATION":"82.9312","RA_OF_ASC_NODE":"150.2202","ARG_OF_PERICENTER":"266.0179","MEAN_ANOMALY":"92.3498","EPHEMERIS_TYPE":"0","CLASSIFICATION_TYPE":"U","NORAD_CAT_ID":"270235","ELEMENT_SET_NO":"999","REV_AT_EPOCH":"8838","BSTAR":"0.00085925990000","MEAN_MOTION_DOT":"0.00000658","MEAN_MOTION_DDOT":"0.0000000000000","SEMIMAJOR_AXIS":"7429.162","PERIOD":"106.211","APOAPSIS":"1164.475","PERIAPSIS":"937.578","OBJECT_TYPE":"TBA","RCS_SIZE":null,"COUNTRY_CODE":null,"LAUNCH_DATE":null,"SITE":null,"DECAY_DATE":null,"FILE":"3141323","GP_ID":"186041517","TLE_LINE0":"0 TBA - TO BE ASSIGNED","TLE_LINE1":"1 T0235U          21275.35207033  .00000658  00000-0  85926-3 0  9992","TLE_LINE2":"2 T0235  82.9312 150.2202 0152707 266.0179  92.3498 13.55791977 88388"},{"CCSDS_OMM_VERS":"2.0","COMMENT":"GENERATED VIA SPACE-TRACK.ORG API","CREATION_DATE":"2021-10-03T04:23:41","ORIGINATOR":"18 SPCS","OBJECT_NAME":"TBA - TO BE ASSIGNED","OBJECT_ID":"","CENTER_NAME":"EARTH","REF_FRAME":"TEME","TIME_SYSTEM":"UTC","MEAN_ELEMENT_THEORY":"SGP4","EPOCH":"2021-10-02T10:49:17.644224","MEAN_MOTION":"14.74042928","ECCENTRICITY":"0.00533040","INCLINATION":"86.2077","RA_OF_ASC_NODE":"176.7872","ARG_OF_PERICENTER":"120.3439","MEAN_ANOMALY":"240.3066","EPHEMERIS_TYPE":"0","CLASSIFICATION_TYPE":"U","NORAD_CAT_ID":"270234","ELEMENT_SET_NO":"999","REV_AT_EPOCH":"9180","BSTAR":"0.00058518292000","MEAN_MOTION_DOT":"0.00003963","MEAN_MOTION_DDOT":"0.0000000000000","SEMIMAJOR_AXIS":"7026.328","PERIOD":"97.691","APOAPSIS":"685.646","PERIAPSIS":"610.740","OBJECT_TYPE":"TBA","RCS_SIZE":null,"COUNTRY_CODE":null,"LAUNCH_DATE":null,"SITE":null,"DECAY_DATE":null,"FILE":"3141323","GP_ID":"186041632","TLE_LINE0":"0 TBA - TO BE ASSIGNED","TLE_LINE1":"1 T0234U          21275.45089866  .00003963  00000-0  58518-3 0  9993","TLE_LINE2":"2 T0234  86.2077 176.7872 0053304 120.3439 240.3066 14.74042928 91806"},{"CCSDS_OMM_VERS":"2.0","COMMENT":"GENERATED VIA SPACE-TRACK.ORG API","CREATION_DATE":"2021-10-02T03:59:35","ORIGINATOR":"18 SPCS","OBJECT_NAME":"TBA - TO BE ASSIGNED","OBJECT_ID":"","CENTER_NAME":"EARTH","REF_FRAME":"TEME","TIME_SYSTEM":"UTC","MEAN_ELEMENT_THEORY":"SGP4","EPOCH":"2021-10-01T16:21:39.607488","MEAN_MOTION":"14.35971219","ECCENTRICITY":"0.00324945","INCLINATION":"98.5123","RA_OF_ASC_NODE":"259.2380","ARG_OF_PERICENTER":"246.1790","MEAN_ANOMALY":"113.5988","EPHEMERIS_TYPE":"0","CLASSIFICATION_TYPE":"U","NORAD_CAT_ID":"270233","ELEMENT_SET_NO":"999","REV_AT_EPOCH":"8832","BSTAR":"0.00005549352200","MEAN_MOTION_DOT":"0.00000118","MEAN_MOTION_DDOT":"0.0000000000000","SEMIMAJOR_AXIS":"7149.978","PERIOD":"100.281","APOAPSIS":"795.076","PERIAPSIS":"748.609","OBJECT_TYPE":"TBA","RCS_SIZE":null,"COUNTRY_CODE":null,"LAUNCH_DATE":null,"SITE":null,"DECAY_DATE":null,"FILE":"3139397","GP_ID":"185950804","TLE_LINE0":"0 TBA - TO BE ASSIGNED","TLE_LINE1":"1 T0233U          21274.68170842  .00000118  00000-0  55494-4 0  9991","TLE_LINE2":"2 T0233  98.5123 259.2380 0032494 246.1790 113.5988 14.35971219 88326"}]